{
  "type": "FeatureCollection",
  "features": [
    {
      "type": "Feature",
      "properties": {
        "norad_id": 37960,
        "name": "COSMOS 2251 DEB",
        "group": "cosmos-2251-debris",
        "lat": 70.92066257979187,
        "lon": -45.548499191002705,
        "alt_km": 913.4682596186549,
        "timestamp": "2025-12-10T20:49:52.950494+00:00",
        "meta_object_name": "COSMOS 2251 DEB",
        "meta_object_id": "1993-036BPK",
        "meta_epoch": "2025-12-09T13:38:16.997856",
        "meta_mean_motion": 14.07843379,
        "meta_eccentricity": 0.024917,
        "meta_inclination": 74.0593,
        "meta_ra_of_asc_node": 192.4512,
        "meta_arg_of_pericenter": 211.9153,
        "meta_mean_anomaly": 146.6687,
        "meta_ephemeris_type": 0,
        "meta_classification_type": "U",
        "meta_norad_cat_id": 37960,
        "meta_element_set_no": 999,
        "meta_rev_at_epoch": 77361,
        "meta_bstar": 0.0012376,
        "meta_mean_motion_dot": 2.763e-05,
        "meta_mean_motion_ddot": 0,
        "tle_line1": "1 37960U 93036BPK 25343.56825229  .00002763  00000+0  12376-2 0  9990",
        "tle_line2": "2 37960  74.0593 192.4512 0249170 211.9153 146.6687 14.07843379773612"
      },
      "geometry": {
        "type": "Point",
        "coordinates": [
          -45.548499191002705,
          70.92066257979187
        ]
      }
    },
    {
      "type": "Feature",
      "properties": {
        "norad_id": 37961,
        "name": "COSMOS 2251 DEB",
        "group": "cosmos-2251-debris",
        "lat": -27.37250841596985,
        "lon": 132.14540680806562,
        "alt_km": 715.1125493922118,
        "timestamp": "2025-12-10T20:49:52.950504+00:00",
        "meta_object_name": "COSMOS 2251 DEB",
        "meta_object_id": "1993-036BPL",
        "meta_epoch": "2025-12-09T16:57:58.675104",
        "meta_mean_motion": 14.57922217,
        "meta_eccentricity": 0.00407859,
        "meta_inclination": 74.0405,
        "meta_ra_of_asc_node": 142.8725,
        "meta_arg_of_pericenter": 223.8393,
        "meta_mean_anomaly": 135.9533,
        "meta_ephemeris_type": 0,
        "meta_classification_type": "U",
        "meta_norad_cat_id": 37961,
        "meta_element_set_no": 999,
        "meta_rev_at_epoch": 80021,
        "meta_bstar": 0.0017845262,
        "meta_mean_motion_dot": 8.259e-05,
        "meta_mean_motion_ddot": 0,
        "tle_line1": "1 37961U 93036BPL 25343.70692911  .00008259  00000+0  17845-2 0  9999",
        "tle_line2": "2 37961  74.0405 142.8725 0040785 223.8393 135.9533 14.57922217800211"
      },
      "geometry": {
        "type": "Point",
        "coordinates": [
          132.14540680806562,
          -27.37250841596985
        ]
      }
    },
    {
      "type": "Feature",
      "properties": {
        "norad_id": 37966,
        "name": "COSMOS 2251 DEB",
        "group": "cosmos-2251-debris",
        "lat": 61.616529130869225,
        "lon": -93.42809216896856,
        "alt_km": 518.3330025000396,
        "timestamp": "2025-12-10T20:49:52.950514+00:00",
        "meta_object_name": "COSMOS 2251 DEB",
        "meta_object_id": "1993-036BPR",
        "meta_epoch": "2025-12-09T09:36:29.677536",
        "meta_mean_motion": 15.12084932,
        "meta_eccentricity": 0.0008975,
        "meta_inclination": 73.977,
        "meta_ra_of_asc_node": 237.4896,
        "meta_arg_of_pericenter": 112.4769,
        "meta_mean_anomaly": 247.7375,
        "meta_ephemeris_type": 0,
        "meta_classification_type": "U",
        "meta_norad_cat_id": 37966,
        "meta_element_set_no": 999,
        "meta_rev_at_epoch": 85292,
        "meta_bstar": 0.003976161,
        "meta_mean_motion_dot": 0.00069139,
        "meta_mean_motion_ddot": 0,
        "tle_line1": "1 37966U 93036BPR 25343.40034349  .00069139  00000+0  39762-2 0  9992",
        "tle_line2": "2 37966  73.9770 237.4896 0008975 112.4769 247.7375 15.12084932852920"
      },
      "geometry": {
        "type": "Point",
        "coordinates": [
          -93.42809216896856,
          61.616529130869225
        ]
      }
    },
    {
      "type": "Feature",
      "properties": {
        "norad_id": 37967,
        "name": "COSMOS 2251 DEB",
        "group": "cosmos-2251-debris",
        "lat": -35.50828428220646,
        "lon": -27.34671851540023,
        "alt_km": 712.5728408419845,
        "timestamp": "2025-12-10T20:49:52.950525+00:00",
        "meta_object_name": "COSMOS 2251 DEB",
        "meta_object_id": "1993-036BPS",
        "meta_epoch": "2025-12-09T17:08:35.965824",
        "meta_mean_motion": 14.40464206,
        "meta_eccentricity": 0.01508449,
        "meta_inclination": 74.0151,
        "meta_ra_of_asc_node": 142.9877,
        "meta_arg_of_pericenter": 282.4198,
        "meta_mean_anomaly": 76.0112,
        "meta_ephemeris_type": 0,
        "meta_classification_type": "U",
        "meta_norad_cat_id": 37967,
        "meta_element_set_no": 999,
        "meta_rev_at_epoch": 64692,
        "meta_bstar": 0.0023151814,
        "meta_mean_motion_dot": 8.402e-05,
        "meta_mean_motion_ddot": 0,
        "tle_line1": "1 37967U 93036BPS 25343.71430516  .00008402  00000+0  23152-2 0  9995",
        "tle_line2": "2 37967  74.0151 142.9877 0150844 282.4198  76.0112 14.40464206646921"
      },
      "geometry": {
        "type": "Point",
        "coordinates": [
          -27.34671851540023,
          -35.50828428220646
        ]
      }
    },
    {
      "type": "Feature",
      "properties": {
        "norad_id": 37968,
        "name": "COSMOS 2251 DEB",
        "group": "cosmos-2251-debris",
        "lat": -33.8704520441878,
        "lon": -96.1295968921839,
        "alt_km": 548.4844326467119,
        "timestamp": "2025-12-10T20:49:52.950535+00:00",
        "meta_object_name": "COSMOS 2251 DEB",
        "meta_object_id": "1993-036BPT",
        "meta_epoch": "2025-12-10T12:59:12.329952",
        "meta_mean_motion": 15.00519142,
        "meta_eccentricity": 0.00805995,
        "meta_inclination": 74.0006,
        "meta_ra_of_asc_node": 275.6407,
        "meta_arg_of_pericenter": 31.9786,
        "meta_mean_anomaly": 328.6254,
        "meta_ephemeris_type": 0,
        "meta_classification_type": "U",
        "meta_norad_cat_id": 37968,
        "meta_element_set_no": 999,
        "meta_rev_at_epoch": 60186,
        "meta_bstar": 0.0016056492,
        "meta_mean_motion_dot": 0.00021716,
        "meta_mean_motion_ddot": 0,
        "tle_line1": "1 37968U 93036BPT 25344.54111493  .00021716  00000+0  16056-2 0  9996",
        "tle_line2": "2 37968  74.0006 275.6407 0080599  31.9786 328.6254 15.00519142601867"
      },
      "geometry": {
        "type": "Point",
        "coordinates": [
          -96.1295968921839,
          -33.8704520441878
        ]
      }
    },
    {
      "type": "Feature",
      "properties": {
        "norad_id": 37971,
        "name": "COSMOS 2251 DEB",
        "group": "cosmos-2251-debris",
        "lat": -50.802561202568654,
        "lon": -114.13387007484738,
        "alt_km": 705.272298136616,
        "timestamp": "2025-12-10T20:49:52.950545+00:00",
        "meta_object_name": "COSMOS 2251 DEB",
        "meta_object_id": "1993-036BPW",
        "meta_epoch": "2025-12-10T13:07:43.259808",
        "meta_mean_motion": 14.48584185,
        "meta_eccentricity": 0.00675879,
        "meta_inclination": 73.9941,
        "meta_ra_of_asc_node": 45.8601,
        "meta_arg_of_pericenter": 185.0765,
        "meta_mean_anomaly": 174.9719,
        "meta_ephemeris_type": 0,
        "meta_classification_type": "U",
        "meta_norad_cat_id": 37971,
        "meta_element_set_no": 999,
        "meta_rev_at_epoch": 60646,
        "meta_bstar": 0.0032808426,
        "meta_mean_motion_dot": 0.00012691,
        "meta_mean_motion_ddot": 0,
        "tle_line1": "1 37971U 93036BPW 25344.54702847  .00012691  00000+0  32808-2 0  9994",
        "tle_line2": "2 37971  73.9941  45.8601 0067587 185.0765 174.9719 14.48584185606469"
      },
      "geometry": {
        "type": "Point",
        "coordinates": [
          -114.13387007484738,
          -50.802561202568654
        ]
      }
    },
    {
      "type": "Feature",
      "properties": {
        "norad_id": 37975,
        "name": "COSMOS 2251 DEB",
        "group": "cosmos-2251-debris",
        "lat": -59.7142312743185,
        "lon": -61.67761731667167,
        "alt_km": 586.0643859622396,
        "timestamp": "2025-12-10T20:49:52.950555+00:00",
        "meta_object_name": "COSMOS 2251 DEB",
        "meta_object_id": "1993-036BQA",
        "meta_epoch": "2025-12-09T06:04:12.444384",
        "meta_mean_motion": 14.75750431,
        "meta_eccentricity": 0.0096458,
        "meta_inclination": 74.0034,
        "meta_ra_of_asc_node": 330.9079,
        "meta_arg_of_pericenter": 321.0366,
        "meta_mean_anomaly": 38.3883,
        "meta_ephemeris_type": 0,
        "meta_classification_type": "U",
        "meta_norad_cat_id": 37975,
        "meta_element_set_no": 999,
        "meta_rev_at_epoch": 69694,
        "meta_bstar": 0.0053103,
        "meta_mean_motion_dot": 0.00039407,
        "meta_mean_motion_ddot": 0,
        "tle_line1": "1 37975U 93036BQA 25343.25292181  .00039407  00000+0  53103-2 0  9995",
        "tle_line2": "2 37975  74.0034 330.9079 0096458 321.0366  38.3883 14.75750431696949"
      },
      "geometry": {
        "type": "Point",
        "coordinates": [
          -61.67761731667167,
          -59.7142312743185
        ]
      }
    }
  ]
}